[{"OBJECT_NAME":"ONEWEB-0351","OBJECT_ID":"2021-083AF","EPOCH":"2026-03-09T15:20:10.527072","MEAN_MOTION":13.20771594,"ECCENTRICITY":0.0002377,"INCLINATION":87.917,"RA_OF_ASC_NODE":294.3149,"ARG_OF_PERICENTER":98.8271,"MEAN_ANOMALY":261.3131,"EPHEMERIS_TYPE":0,"CLASSIFICATION_TYPE":"U","NORAD_CAT_ID":49215,"ELEMENT_SET_NO":999,"REV_AT_EPOCH":22363,"BSTAR":-0.00037363,"MEAN_MOTION_DOT":-1.39e-6,"MEAN_MOTION_DDOT":0},{"OBJECT_NAME":"THORAD AGENA D DEB","OBJECT_ID":"1970-025TK","EPOCH":"2026-03-08T20:30:06.788736","MEAN_MOTION":13.11023788,"ECCENTRICITY":0.01279366,"INCLINATION":100.0768,"RA_OF_ASC_NODE":86.1332,"ARG_OF_PERICENTER":178.2703,"MEAN_ANOMALY":181.8875,"EPHEMERIS_TYPE":0,"CLASSIFICATION_TYPE":"U","NORAD_CAT_ID":42553,"ELEMENT_SET_NO":999,"REV_AT_EPOCH":54241,"BSTAR":0.00016781361,"MEAN_MOTION_DOT":2.0e-7,"MEAN_MOTION_DDOT":0}]
